{
  "type": "FeatureCollection",
  "features": [
    {
      "type": "Feature",
      "properties": {
        "norad_id": 33835,
        "name": "COSMOS 2251 DEB",
        "group": "cosmos-2251-debris",
        "lat": 22.464274483283805,
        "lon": -66.70327829069885,
        "alt_km": 648.7710413875184,
        "timestamp": "2025-12-02T19:35:50.947237+00:00",
        "meta_object_name": "COSMOS 2251 DEB",
        "meta_object_id": "1993-036CC",
        "meta_epoch": "2025-12-02T10:55:50.391840",
        "meta_mean_motion": 14.62054922,
        "meta_eccentricity": 0.0055765,
        "meta_inclination": 74.0554,
        "meta_ra_of_asc_node": 120.7758,
        "meta_arg_of_pericenter": 177.0951,
        "meta_mean_anomaly": 239.6764,
        "meta_ephemeris_type": 0,
        "meta_classification_type": "U",
        "meta_norad_cat_id": 33835,
        "meta_element_set_no": 999,
        "meta_rev_at_epoch": 88639,
        "meta_bstar": 0.0014936,
        "meta_mean_motion_dot": 7.644e-05,
        "meta_mean_motion_ddot": 0,
        "tle_line1": "1 33835U 93036CC  25336.45544435  .00007644  00000+0  14936-2 0  9991",
        "tle_line2": "2 33835  74.0554 120.7758 0055765 177.0951 239.6764 14.62054922886393"
      },
      "geometry": {
        "type": "Point",
        "coordinates": [
          -66.70327829069885,
          22.464274483283805
        ]
      }
    },
    {
      "type": "Feature",
      "properties": {
        "norad_id": 33836,
        "name": "COSMOS 2251 DEB",
        "group": "cosmos-2251-debris",
        "lat": -69.60262752232227,
        "lon": -131.99026939492626,
        "alt_km": 651.6987524177266,
        "timestamp": "2025-12-02T19:35:50.947248+00:00",
        "meta_object_name": "COSMOS 2251 DEB",
        "meta_object_id": "1993-036CD",
        "meta_epoch": "2025-12-02T07:39:27.827712",
        "meta_mean_motion": 14.79283653,
        "meta_eccentricity": 0.0022411,
        "meta_inclination": 73.9971,
        "meta_ra_of_asc_node": 279.5071,
        "meta_arg_of_pericenter": 136.5131,
        "meta_mean_anomaly": 17.9329,
        "meta_ephemeris_type": 0,
        "meta_classification_type": "U",
        "meta_norad_cat_id": 33836,
        "meta_element_set_no": 999,
        "meta_rev_at_epoch": 63934,
        "meta_bstar": 0.0015909,
        "meta_mean_motion_dot": 0.00011871,
        "meta_mean_motion_ddot": 0,
        "tle_line1": "1 33836U 93036CD  25336.31907208  .00011871  00000+0  15909-2 0  9996",
        "tle_line2": "2 33836  73.9971 279.5071 0022411 136.5131  17.9329 14.79283653639346"
      },
      "geometry": {
        "type": "Point",
        "coordinates": [
          -131.99026939492626,
          -69.60262752232227
        ]
      }
    },
    {
      "type": "Feature",
      "properties": {
        "norad_id": 33837,
        "name": "COSMOS 2251 DEB",
        "group": "cosmos-2251-debris",
        "lat": -27.385731696984667,
        "lon": -97.17980116440411,
        "alt_km": 728.418480066246,
        "timestamp": "2025-12-02T19:35:50.947258+00:00",
        "meta_object_name": "COSMOS 2251 DEB",
        "meta_object_id": "1993-036CE",
        "meta_epoch": "2025-12-02T08:42:19.744992",
        "meta_mean_motion": 14.50663673,
        "meta_eccentricity": 0.0035597,
        "meta_inclination": 74.0127,
        "meta_ra_of_asc_node": 75.1332,
        "meta_arg_of_pericenter": 298.5774,
        "meta_mean_anomaly": 61.1806,
        "meta_ephemeris_type": 0,
        "meta_classification_type": "U",
        "meta_norad_cat_id": 33837,
        "meta_element_set_no": 999,
        "meta_rev_at_epoch": 88645,
        "meta_bstar": 0.00039229,
        "meta_mean_motion_dot": 1.525e-05,
        "meta_mean_motion_ddot": 0,
        "tle_line1": "1 33837U 93036CE  25336.36272853  .00001525  00000+0  39229-3 0  9990",
        "tle_line2": "2 33837  74.0127  75.1332 0035597 298.5774  61.1806 14.50663673886453"
      },
      "geometry": {
        "type": "Point",
        "coordinates": [
          -97.17980116440411,
          -27.385731696984667
        ]
      }
    },
    {
      "type": "Feature",
      "properties": {
        "norad_id": 33838,
        "name": "COSMOS 2251 DEB",
        "group": "cosmos-2251-debris",
        "lat": 14.43742646145774,
        "lon": -15.830246770033837,
        "alt_km": 743.3271394111598,
        "timestamp": "2025-12-02T19:35:50.947268+00:00",
        "meta_object_name": "COSMOS 2251 DEB",
        "meta_object_id": "1993-036CF",
        "meta_epoch": "2025-12-02T12:19:46.335072",
        "meta_mean_motion": 14.48313831,
        "meta_eccentricity": 0.0027372,
        "meta_inclination": 74.0356,
        "meta_ra_of_asc_node": 168.9631,
        "meta_arg_of_pericenter": 292.2164,
        "meta_mean_anomaly": 94.5969,
        "meta_ephemeris_type": 0,
        "meta_classification_type": "U",
        "meta_norad_cat_id": 33838,
        "meta_element_set_no": 999,
        "meta_rev_at_epoch": 88421,
        "meta_bstar": 0.00048311,
        "meta_mean_motion_dot": 1.787e-05,
        "meta_mean_motion_ddot": 0,
        "tle_line1": "1 33838U 93036CF  25336.51373073  .00001787  00000+0  48311-3 0  9996",
        "tle_line2": "2 33838  74.0356 168.9631 0027372 292.2164  94.5969 14.48313831884214"
      },
      "geometry": {
        "type": "Point",
        "coordinates": [
          -15.830246770033837,
          14.43742646145774
        ]
      }
    },
    {
      "type": "Feature",
      "properties": {
        "norad_id": 33839,
        "name": "COSMOS 2251 DEB",
        "group": "cosmos-2251-debris",
        "lat": -54.23869233738091,
        "lon": 68.9595742737065,
        "alt_km": 698.1692466645382,
        "timestamp": "2025-12-02T19:35:50.947278+00:00",
        "meta_object_name": "COSMOS 2251 DEB",
        "meta_object_id": "1993-036CG",
        "meta_epoch": "2025-12-02T04:28:33.665664",
        "meta_mean_motion": 14.64368865,
        "meta_eccentricity": 0.00848155,
        "meta_inclination": 74.0401,
        "meta_ra_of_asc_node": 226.7563,
        "meta_arg_of_pericenter": 341.308,
        "meta_mean_anomaly": 177.001,
        "meta_ephemeris_type": 0,
        "meta_classification_type": "U",
        "meta_norad_cat_id": 33839,
        "meta_element_set_no": 999,
        "meta_rev_at_epoch": 89425,
        "meta_bstar": 0.00033789405,
        "meta_mean_motion_dot": 1.848e-05,
        "meta_mean_motion_ddot": 0,
        "tle_line1": "1 33839U 93036CG  25336.18650076  .00001848  00000+0  33789-3 0  9992",
        "tle_line2": "2 33839  74.0401 226.7563 0084815 341.3080 177.0010 14.64368865894255"
      },
      "geometry": {
        "type": "Point",
        "coordinates": [
          68.9595742737065,
          -54.23869233738091
        ]
      }
    },
    {
      "type": "Feature",
      "properties": {
        "norad_id": 33841,
        "name": "COSMOS 2251 DEB",
        "group": "cosmos-2251-debris",
        "lat": -16.097337638510055,
        "lon": 121.05036059023001,
        "alt_km": 784.4360743138086,
        "timestamp": "2025-12-02T19:35:50.947289+00:00",
        "meta_object_name": "COSMOS 2251 DEB",
        "meta_object_id": "1993-036CJ",
        "meta_epoch": "2025-12-02T07:41:46.044384",
        "meta_mean_motion": 14.37833942,
        "meta_eccentricity": 0.0020065,
        "meta_inclination": 74.0372,
        "meta_ra_of_asc_node": 297.2249,
        "meta_arg_of_pericenter": 20.066,
        "meta_mean_anomaly": 130.7792,
        "meta_ephemeris_type": 0,
        "meta_classification_type": "U",
        "meta_norad_cat_id": 33841,
        "meta_element_set_no": 999,
        "meta_rev_at_epoch": 87964,
        "meta_bstar": 0.00033882,
        "meta_mean_motion_dot": 9.98e-06,
        "meta_mean_motion_ddot": 0,
        "tle_line1": "1 33841U 93036CJ  25336.32067181  .00000998  00000+0  33882-3 0  9999",
        "tle_line2": "2 33841  74.0372 297.2249 0020065  20.0660 130.7792 14.37833942879643"
      },
      "geometry": {
        "type": "Point",
        "coordinates": [
          121.05036059023001,
          -16.097337638510055
        ]
      }
    },
    {
      "type": "Feature",
      "properties": {
        "norad_id": 33842,
        "name": "COSMOS 2251 DEB",
        "group": "cosmos-2251-debris",
        "lat": -72.02041308670917,
        "lon": 176.15974595553323,
        "alt_km": 744.5646147483258,
        "timestamp": "2025-12-02T19:35:50.947299+00:00",
        "meta_object_name": "COSMOS 2251 DEB",
        "meta_object_id": "1993-036CK",
        "meta_epoch": "2025-12-02T09:59:13.004736",
        "meta_mean_motion": 14.42660637,
        "meta_eccentricity": 0.0046934,
        "meta_inclination": 74.0335,
        "meta_ra_of_asc_node": 238.8124,
        "meta_arg_of_pericenter": 348.2676,
        "meta_mean_anomaly": 11.7382,
        "meta_ephemeris_type": 0,
        "meta_classification_type": "U",
        "meta_norad_cat_id": 33842,
        "meta_element_set_no": 999,
        "meta_rev_at_epoch": 88188,
        "meta_bstar": 0.00044692,
        "meta_mean_motion_dot": 1.479e-05,
        "meta_mean_motion_ddot": 0,
        "tle_line1": "1 33842U 93036CK  25336.41612274  .00001479  00000+0  44692-3 0  9995",
        "tle_line2": "2 33842  74.0335 238.8124 0046934 348.2676  11.7382 14.42660637881888"
      },
      "geometry": {
        "type": "Point",
        "coordinates": [
          176.15974595553323,
          -72.02041308670917
        ]
      }
    }
  ]
}